ONEWEB-0228             
1 48780U 21045P   24201.94666807 -.00000061  00000+0 -19769-3 0  9997
2 48780  87.9014  37.9272 0001786  82.9828 277.1505 13.15070567152658
